From:	Horizons Ephemeris System <horizons@ssd.jpl.nasa.gov>
Sent:	Friday, December 4, 2020 11:20 AM
Subject:	[Horizons] MAJOR BODY #C(usr={90.,60.,.600^G}@301)_T(301) (1/1)

 Automated mail xmit by MAIL_REQUEST, PID= 5926 Fri Dec  4 09:19:48 2020
++++++++++++++++++++++++++++++++ (part 1 of 1)  +++++++++++++++++++++++++++++++
*******************************************************************************
 Revised: July 31, 2013             Moon / (Earth)                          301
 
 GEOPHYSICAL DATA (updated 2018-Aug-15):
  Vol. mean radius, km  = 1737.53+-0.03    Mass, x10^22 kg       =    7.349
  Radius (gravity), km  = 1738.0           Surface emissivity    =    0.92
  Radius (IAU), km      = 1737.4           GM, km^3/s^2          = 4902.800066
  Density, g/cm^3       =    3.3437        GM 1-sigma, km^3/s^2  =  +-0.0001  
  V(1,0)                =   +0.21          Surface accel., m/s^2 =    1.62
  Earth/Moon mass ratio = 81.3005690769    Farside crust. thick. = ~80 - 90 km
  Mean crustal density  = 2.97+-.07 g/cm^3 Nearside crust. thick.= 58+-8 km 
  Heat flow, Apollo 15  = 3.1+-.6 mW/m^2   Mean angular diameter = 31'05.2"
  Heat flow, Apollo 17  = 2.2+-.5 mW/m^2   Sid. rot. rate, rad/s = 0.0000026617
  Geometric Albedo      = 0.12             Mean solar day        = 29.5306 d
  Obliquity to orbit    = 6.67 deg         Orbit period          = 27.321582 d
  Semi-major axis, a    = 384400 km        Eccentricity          = 0.05490
  Mean motion, rad/s    = 2.6616995x10^-6  Inclination           = 5.145 deg
  Apsidal period        = 3231.50 d        Nodal period          = 6798.38 d
                                 Perihelion  Aphelion    Mean
  Solar Constant (W/m^2)         1414+-7     1323+-7     1368+-7
  Maximum Planetary IR (W/m^2)   1314        1226        1268
  Minimum Planetary IR (W/m^2)      5.2         5.2         5.2
********************************************************************************
 
 
*******************************************************************************
Ephemeris / MAIL_REQUEST Fri Dec  4 09:19:47 2020 Pasadena, USA  / Horizons
*******************************************************************************
Target body name: Moon (301)                      {source: DE431mx}
Center body name: Moon (301)                      {source: DE431mx}
Center-site name: (user defined site below)
*******************************************************************************
Start time      : A.D. 2020-Jan-01 00:00:00.0000 TDB
Stop  time      : A.D. 2039-Jan-01 00:00:00.0000 TDB
Step-size       : 10000 steps
*******************************************************************************
Center geodetic : 90.0000000,60.0000000,0.6000000 {E-lon(deg),Lat(deg),Alt(km)}
Center cylindric: 90.0000000,869.000000,1505.1522 {E-lon(deg),Dxy(km),Dz(km)}
Center pole/equ : IAU_MOON                        {East-longitude positive}
Center radii    : 1737.4 x 1737.4 x 1737.4 km     {Equator, meridian, pole}    
Output units    : KM-S
Output type     : GEOMETRIC cartesian states
Output format   : 3 (position, velocity, LT, range, range-rate)
Reference frame : Ecliptic of J2000.0
*******************************************************************************
JDTDB
   X     Y     Z
   VX    VY    VZ
   LT    RG    RR
*******************************************************************************
$$SOE
2460948.156000001 = A.D. 2025-Sep-29 15:44:38.4001 TDB 
   8.524102063722913E+02  7.500347599237330E+01 -1.512750910976889E+03
  -3.058174734964022E-04  2.293035345705195E-03 -5.863246457196312E-05
   5.797343974543881E-03  1.738000000000000E+03 -3.034268910799479E-19
2460948.850000001 = A.D. 2025-Sep-30 08:24:00.0001 TDB 
   8.231975755176015E+02  2.104597666661616E+02 -1.516145256324989E+03
  -6.664949771061508E-04  2.215467986996483E-03 -5.434187344853720E-05
   5.797343974543882E-03  1.738000000000000E+03  2.714872183346902E-19
2460949.544000001 = A.D. 2025-Oct-01 01:03:21.6001 TDB 
   7.728205224818300E+02  3.395625466590614E+02 -1.519239848390412E+03
  -1.010249664005532E-03  2.081565512236677E-03 -4.865590306850115E-05
   5.797343974543881E-03  1.738000000000000E+03 -1.117888546084018E-19
2460950.238000001 = A.D. 2025-Oct-01 17:42:43.2001 TDB 
   7.025586737704498E+02  4.590288705435594E+02 -1.521955257528095E+03
  -1.328336180082649E-03  1.894729542104274E-03 -4.172168859002006E-05
   5.797343974543881E-03  1.738000000000000E+03  3.513364001978344E-19
2460950.932000001 = A.D. 2025-Oct-02 10:22:04.8001 TDB 
   6.141975636281145E+02  5.658207001799301E+02 -1.524221863142365E+03
  -1.612661458067854E-03  1.659709934789610E-03 -3.371851719672888E-05
   5.797343974543883E-03  1.738000000000000E+03  1.517134455399739E-19
2460951.626000001 = A.D. 2025-Oct-03 03:01:26.4001 TDB 
   5.099832335525835E+02  6.572222928407634E+02 -1.525981637926348E+03
  -1.855991247984679E-03  1.382484036066739E-03 -2.485291379031491E-05
   5.797343974543881E-03  1.738000000000000E+03  1.357436091673451E-19
2460952.320000001 = A.D. 2025-Oct-03 19:40:48.0001 TDB 
   3.925650780867080E+02  7.309093872187459E+02 -1.527189617284734E+03
  -2.052134780837640E-03  1.070104431785243E-03 -1.535308760771260E-05
   5.797343974543882E-03  1.738000000000000E+03  1.756682000989172E-19
2460953.014000001 = A.D. 2025-Oct-04 12:20:09.6001 TDB 
   2.649283945737272E+02  7.850084113645310E+02 -1.527815021472011E+03
  -2.196102782003685E-03  7.305190931986423E-04 -5.462933283485510E-06
   5.797343974543881E-03  1.738000000000000E+03  3.693024661170418E-20
2460953.708000001 = A.D. 2025-Oct-05 04:59:31.2001 TDB 
   1.303183614532083E+02  8.181441925170764E+02 -1.527842009148436E+03
  -2.284234736593896E-03  3.723685423196427E-04  4.564236541273120E-06
   5.797343974543881E-03  1.738000000000000E+03 -1.646889375927349E-20
2460954.402000001 = A.D. 2025-Oct-05 21:38:52.8001 TDB 
  -7.842608114137054E+00  8.294749453177361E+02 -1.527270050969410E+03
  -2.314292110911331E-03  4.765278702774069E-06  1.447207412002513E-05
   5.797343974543882E-03  1.738000000000000E+03  3.992459093157209E-21
2460955.096000001 = A.D. 2025-Oct-06 14:18:14.4001 TDB 
  -1.460420193416835E+02  8.187136440743609E+02 -1.526113920254017E+03
  -2.285515129605110E-03 -3.629388199027144E-04  2.400756618405120E-05
   5.797343974543881E-03  1.738000000000000E+03  2.794721365210047E-20
2460955.790000001 = A.D. 2025-Oct-07 06:57:36.0001 TDB 
  -2.807667223220283E+02  7.861352374574185E+02 -1.524403304924360E+03
  -2.198641670411582E-03 -7.213910978755528E-04  3.292727926519054E-05
   5.797343974543882E-03  1.738000000000000E+03 -1.197737727947163E-19
2460956.484000001 = A.D. 2025-Oct-07 23:36:57.6001 TDB 
  -4.085923222741825E+02  7.325695304855121E+02 -1.522182051261552E+03
  -2.055887838049267E-03 -1.061476552961643E-03  4.100337801748452E-05
   5.797343974543881E-03  1.738000000000000E+03  1.117888546084018E-19
2460957.178000001 = A.D. 2025-Oct-08 16:16:19.2001 TDB 
  -5.262702877753894E+02  6.593799287060251E+02 -1.519507056194358E+03
  -1.860890785176682E-03 -1.374549953992162E-03  4.802931192044769E-05
   5.797343974543880E-03  1.737999999999999E+03  5.110347639241229E-19
2460957.872000001 = A.D. 2025-Oct-09 08:55:40.8001 TDB 
  -6.308105349394719E+02  5.684286029435893E+02 -1.516446831367647E+03
  -1.618615331107445E-03 -1.652655693481802E-03  5.382505617481769E-05
   5.797343974543882E-03  1.738000000000000E+03  3.193967274525767E-20
2460958.566000001 = A.D. 2025-Oct-10 01:35:02.4001 TDB 
  -7.195573867213462E+02  4.620289800942315E+02 -1.513079769466181E+03
  -1.335226859899021E-03 -1.888729774248806E-03  5.824177977767494E-05
   5.797343974543882E-03  1.738000000000000E+03  1.038039364220874E-19
2460959.260000001 = A.D. 2025-Oct-10 18:14:24.0001 TDB 
  -7.902569813624076E+02  3.428867871375555E+02 -1.509492151226517E+03
  -1.017933833396647E-03 -2.076778823723804E-03  6.116580326019541E-05
   5.797343974543883E-03  1.738000000000000E+03  2.395475455894326E-19
2460959.954000001 = A.D. 2025-Oct-11 10:53:45.6001 TDB 
  -8.411144272054134E+02  2.140311636920974E+02 -1.505775939944424E+03
  -6.748040105776795E-04 -2.212031650094053E-03  6.252170601361493E-05
   5.797343974543882E-03  1.738000000000000E+03  4.790950911788652E-20
2460960.648000001 = A.D. 2025-Oct-12 03:33:07.2001 TDB 
  -8.708392662455457E+02  7.873760613786180E+01 -1.502026418457611E+03
  -3.145591054283584E-04 -2.291059580233366E-03  6.227445306278181E-05
   5.797343974543881E-03  1.738000000000000E+03  2.155927910304893E-19
2460961.342000001 = A.D. 2025-Oct-12 20:12:28.8001 TDB 
  -8.786781086000127E+02 -5.955529211867292E+01 -1.498339730717891E+03
   5.364687081131244E-05 -2.311862628694311E-03  6.043043600663020E-05
   5.797343974543883E-03  1.738000000000000E+03  2.475324637757470E-19
2460962.036000001 = A.D. 2025-Oct-13 12:51:50.4001 TDB 
  -8.644336266532575E+02 -1.973331885827791E+02 -1.494810395265851E+03
   4.204599590866083E-04 -2.273919417608395E-03  5.703736221748747E-05
   5.797343974543883E-03  1.738000000000000E+03 -1.996229546578604E-19
2460962.730000001 = A.D. 2025-Oct-14 05:31:12.0001 TDB 
  -8.284694426953611E+02 -3.310952145604733E+02 -1.491528860403040E+03
   7.765634317970058E-04 -2.178199677399855E-03  5.218297684482271E-05
   5.797343974543882E-03  1.738000000000000E+03 -2.714872183346902E-19
2460963.424000001 = A.D. 2025-Oct-14 22:10:33.6001 TDB 
  -7.717007989395701E+02 -4.574428173977700E+02 -1.488579170124054E+03
   1.112913844297072E-03 -2.027139086838350E-03  4.599265777702167E-05
   5.797343974543881E-03  1.738000000000000E+03  1.756682000989172E-19
2460964.118000001 = A.D. 2025-Oct-15 14:49:55.2001 TDB 
  -6.955712553635694E+02 -5.731659798259158E+02 -1.486036805830241E+03
   1.420970046832339E-03 -1.824577138111660E-03  3.862597722972718E-05
   5.797343974543881E-03  1.738000000000000E+03 -2.195852501236465E-19
